GLOBALSTAR M024         
1 25883U 99043A   24179.55625255 -.00000033  00000+0  11347-2 0  9993
2 25883  52.0008 100.7865 0001108 264.2687 266.3716 11.10156253 75474
GLOBALSTAR M027         
1 25884U 99043B   24179.23435387 -.00000021  00000+0  16229-2 0  9995
2 25884  52.0170 169.4394 0021005 138.4410 221.7983 11.04369071102028
GLOBALSTAR M054         
1 25885U 99043C   24179.80929456 -.00000015  00000+0  14336-2 0  9994
2 25885  52.0162 354.9292 0004195 299.4755  73.8246 11.39204468 78665
GLOBALSTAR M053         
1 25886U 99043D   24179.70498687 -.00000060  00000+0  24596-3 0  9991
2 25886  51.9995 282.6090 0003913 193.6457 321.2521 11.27656114 79452
GLOBALSTAR M058         
1 25907U 99049A   24179.70596786 -.00000148  00000+0 -85962-3 0  9992
2 25907  51.9964 335.7185 0001600 324.2663  35.8065 11.93181293499225
GLOBALSTAR M050         
1 25908U 99049B   24179.93019479 -.00000044  00000+0  49916-3 0  9990
2 25908  52.0012   9.2616 0009778  49.5550 101.3168 12.07434613105398
GLOBALSTAR M033         
1 25909U 99049C   24180.49948521 -.00000085  00000+0  63582-4 0  9994
2 25909  51.9910 263.9649 0012329 257.5575 102.3893 12.20273323125283
GLOBALSTAR M055         
1 25910U 99049D   24179.62095579 -.00000066  00000+0  23872-3 0  9991
2 25910  52.0031 294.4385 0007751 116.3711 243.7937 12.29403350124679
